start=new Date('2023-05-18T00:00:00.000Z').valueOf();
sats=[{"LAUNCH_DATE":"2021-02-16","PERIOD":"95.592","MEAN_MOTION_DDOT":"0.0000000000000","GP_ID":"232042227","SITE":"AFETR","CLASSIFICATION_TYPE":"U","MEAN_MOTION_DOT":"0.00003830","MEAN_MOTION":"15.06396583","FILE":"3910633","RCS_SIZE":"LARGE","DECAY_DATE":null,"RA_OF_ASC_NODE":"341.3305","EPOCH":"2023-05-17T20:07:41.968416","EPHEMERIS_TYPE":"0","BSTAR":"0.00027590000000","TLE_LINE1":"1 47650U 21012AG  23137.83868019  .00003830  00000-0  27590-3 0  9997","REF_FRAME":"TEME","NORAD_CAT_ID":"47650","MEAN_ELEMENT_THEORY":"SGP4","ELEMENT_SET_NO":"999","APOAPSIS":"547.816","TLE_LINE2":"2 47650  53.0540 341.3305 0000855  87.0103 273.0983 15.06396583125485","SEMIMAJOR_AXIS":"6925.359","OBJECT_ID":"2021-012AG","OBJECT_NAME":"STARLINK-2033","TIME_SYSTEM":"UTC","PERIAPSIS":"546.632","OBJECT_TYPE":"PAYLOAD","CENTER_NAME":"EARTH","REV_AT_EPOCH":"12548","MEAN_ANOMALY":"273.0983","INCLINATION":"53.0540","ECCENTRICITY":"0.00008550","ARG_OF_PERICENTER":"87.0103","COUNTRY_CODE":"US"},{"CLASSIFICATION_TYPE":"U","SITE":"AFETR","PERIOD":"95.592","GP_ID":"232042479","MEAN_MOTION_DDOT":"0.0000000000000","LAUNCH_DATE":"2021-02-16","RA_OF_ASC_NODE":"1.2044","DECAY_DATE":null,"RCS_SIZE":"LARGE","FILE":"3910633","MEAN_MOTION":"15.06399606","MEAN_MOTION_DOT":"0.00006925","APOAPSIS":"547.568","ELEMENT_SET_NO":"999","MEAN_ELEMENT_THEORY":"SGP4","BSTAR":"0.00048333000000","TLE_LINE1":"1 47651U 21012AH  23137.87739099  .00006925  00000-0  48333-3 0  9993","EPHEMERIS_TYPE":"0","EPOCH":"2023-05-17T21:03:26.581536","NORAD_CAT_ID":"47651","REF_FRAME":"TEME","ECCENTRICITY":"0.00005100","INCLINATION":"53.0552","ARG_OF_PERICENTER":"59.7778","COUNTRY_CODE":"US","REV_AT_EPOCH":"12522","MEAN_ANOMALY":"300.3262","CENTER_NAME":"EARTH","TIME_SYSTEM":"UTC","PERIAPSIS":"546.862","OBJECT_NAME":"STARLINK-2035","OBJECT_TYPE":"PAYLOAD","OBJECT_ID":"2021-012AH","TLE_LINE2":"2 47651  53.0552   1.2044 0000510  59.7778 300.3262 15.06399606125228","SEMIMAJOR_AXIS":"6925.350"},{"LAUNCH_DATE":"2021-02-16","SITE":"AFETR","CLASSIFICATION_TYPE":"U","PERIOD":"95.592","MEAN_MOTION_DDOT":"0.0000000000000","GP_ID":"232043229","MEAN_MOTION":"15.06397369","MEAN_MOTION_DOT":"-0.00000068","RA_OF_ASC_NODE":"1.0588","RCS_SIZE":"LARGE","DECAY_DATE":null,"FILE":"3910633","MEAN_ELEMENT_THEORY":"SGP4","TLE_LINE1":"1 47652U 21012AJ  23137.89949875 -.00000068  00000-0  14349-4 0  9995","BSTAR":"0.00001434900000","EPOCH":"2023-05-17T21:35:16.692000","EPHEMERIS_TYPE":"0","REF_FRAME":"TEME","NORAD_CAT_ID":"47652","APOAPSIS":"547.973","ELEMENT_SET_NO":"999","PERIAPSIS":"546.470","TIME_SYSTEM":"UTC","OBJECT_NAME":"STARLINK-2036","OBJECT_TYPE":"PAYLOAD","OBJECT_ID":"2021-012AJ","SEMIMAJOR_AXIS":"6925.357","TLE_LINE2":"2 47652  53.0554   1.0588 0001085  77.3083 282.8027 15.06397369125222","ECCENTRICITY":"0.00010850","INCLINATION":"53.0554","COUNTRY_CODE":"US","ARG_OF_PERICENTER":"77.3083","MEAN_ANOMALY":"282.8027","REV_AT_EPOCH":"12522","CENTER_NAME":"EARTH"},{"OBJECT_ID":"2021-012AK","SEMIMAJOR_AXIS":"6925.373","TLE_LINE2":"2 47653  53.0535 341.0817 0000976  94.6910 265.4190 15.06391925125492","OBJECT_TYPE":"PAYLOAD","PERIAPSIS":"546.562","TIME_SYSTEM":"UTC","OBJECT_NAME":"STARLINK-2037","REV_AT_EPOCH":"12549","MEAN_ANOMALY":"265.4190","CENTER_NAME":"EARTH","COUNTRY_CODE":"US","ARG_OF_PERICENTER":"94.6910","ECCENTRICITY":"0.00009760","INCLINATION":"53.0535","NORAD_CAT_ID":"47653","REF_FRAME":"TEME","TLE_LINE1":"1 47653U 21012AK  23137.89397271  .00004847  00000-0  34413-3 0  9994","BSTAR":"0.00034413000000","EPHEMERIS_TYPE":"0","EPOCH":"2023-05-17T21:27:19.242144","MEAN_ELEMENT_THEORY":"SGP4","ELEMENT_SET_NO":"999","APOAPSIS":"547.914","MEAN_MOTION_DOT":"0.00004847","MEAN_MOTION":"15.06391925","FILE":"3910633","RA_OF_ASC_NODE":"341.0817","RCS_SIZE":"LARGE","DECAY_DATE":null,"LAUNCH_DATE":"2021-02-16","MEAN_MOTION_DDOT":"0.0000000000000","GP_ID":"232041478","PERIOD":"95.593","SITE":"AFETR","CLASSIFICATION_TYPE":"U"},{"OBJECT_TYPE":"PAYLOAD","OBJECT_NAME":"STARLINK-2038","TIME_SYSTEM":"UTC","PERIAPSIS":"546.529","TLE_LINE2":"2 47654  53.0558   1.0386 0000994  76.6027 283.5072 15.06398774125221","SEMIMAJOR_AXIS":"6925.352","OBJECT_ID":"2021-012AL","ARG_OF_PERICENTER":"76.6027","COUNTRY_CODE":"US","INCLINATION":"53.0558","ECCENTRICITY":"0.00009940","CENTER_NAME":"EARTH","REV_AT_EPOCH":"12522","MEAN_ANOMALY":"283.5072","MEAN_ELEMENT_THEORY":"SGP4","NORAD_CAT_ID":"47654","REF_FRAME":"TEME","EPOCH":"2023-05-17T21:40:35.300640","EPHEMERIS_TYPE":"0","TLE_LINE1":"1 47654U 21012AL  23137.90318635  .00004513  00000-0  32166-3 0  9997","BSTAR":"0.00032166000000","APOAPSIS":"547.906","ELEMENT_SET_NO":"999","MEAN_MOTION":"15.06398774","MEAN_MOTION_DOT":"0.00004513","DECAY_DATE":null,"RCS_SIZE":"LARGE","RA_OF_ASC_NODE":"1.0386","FILE":"3910633","LAUNCH_DATE":"2021-02-16","SITE":"AFETR","CLASSIFICATION_TYPE":"U","GP_ID":"232041728","MEAN_MOTION_DDOT":"0.0000000000000","PERIOD":"95.592"},{"APOAPSIS":"548.004","ELEMENT_SET_NO":"999","MEAN_ELEMENT_THEORY":"SGP4","EPOCH":"2023-05-17T21:29:58.047072","EPHEMERIS_TYPE":"0","TLE_LINE1":"1 47655U 21012AM  23137.89581073 -.00000548  00000-0 -17902-4 0  9992","BSTAR":"-0.00001790200000","NORAD_CAT_ID":"47655","REF_FRAME":"TEME","INCLINATION":"53.0547","ECCENTRICITY":"0.00011270","ARG_OF_PERICENTER":"81.9458","COUNTRY_CODE":"US","CENTER_NAME":"EARTH","MEAN_ANOMALY":"278.1658","REV_AT_EPOCH":"12522","OBJECT_NAME":"STARLINK-2039","TIME_SYSTEM":"UTC","PERIAPSIS":"546.443","OBJECT_TYPE":"PAYLOAD","SEMIMAJOR_AXIS":"6925.359","TLE_LINE2":"2 47655  53.0547   1.0746 0001127  81.9458 278.1658 15.06396597125227","OBJECT_ID":"2021-012AM","CLASSIFICATION_TYPE":"U","SITE":"AFETR","PERIOD":"95.592","GP_ID":"232042979","MEAN_MOTION_DDOT":"0.0000000000000","LAUNCH_DATE":"2021-02-16","DECAY_DATE":null,"RCS_SIZE":"LARGE","RA_OF_ASC_NODE":"1.0746","FILE":"3910633","MEAN_MOTION":"15.06396597","MEAN_MOTION_DOT":"-0.00000548"},{"MEAN_ANOMALY":"279.2162","REV_AT_EPOCH":"12549","CENTER_NAME":"EARTH","ARG_OF_PERICENTER":"80.8940","COUNTRY_CODE":"US","ECCENTRICITY":"0.00009970","INCLINATION":"53.0543","OBJECT_ID":"2021-012AN","TLE_LINE2":"2 47656  53.0543 341.2977 0000997  80.8940 279.2162 15.06394129125497","SEMIMAJOR_AXIS":"6925.367","OBJECT_TYPE":"PAYLOAD","TIME_SYSTEM":"UTC","PERIAPSIS":"546.541","OBJECT_NAME":"STARLINK-2040","ELEMENT_SET_NO":"999","APOAPSIS":"547.922","NORAD_CAT_ID":"47656","REF_FRAME":"TEME","TLE_LINE1":"1 47656U 21012AN  23137.84605072  .00001966  00000-0  15087-3 0  9998","BSTAR":"0.00015087000000","EPHEMERIS_TYPE":"0","EPOCH":"2023-05-17T20:18:18.782208","MEAN_ELEMENT_THEORY":"SGP4","FILE":"3910633","RA_OF_ASC_NODE":"341.2977","DECAY_DATE":null,"RCS_SIZE":"LARGE","MEAN_MOTION_DOT":"0.00001966","MEAN_MOTION":"15.06394129","GP_ID":"232042730","MEAN_MOTION_DDOT":"0.0000000000000","PERIOD":"95.593","CLASSIFICATION_TYPE":"U","SITE":"AFETR","LAUNCH_DATE":"2021-02-16"},{"FILE":"3910633","RCS_SIZE":"LARGE","DECAY_DATE":null,"RA_OF_ASC_NODE":"0.9740","MEAN_MOTION_DOT":"-0.00000285","MEAN_MOTION":"15.06395199","GP_ID":"232041978","MEAN_MOTION_DDOT":"0.0000000000000","PERIOD":"95.592","SITE":"AFETR","CLASSIFICATION_TYPE":"U","LAUNCH_DATE":"2021-02-16","CENTER_NAME":"EARTH","REV_AT_EPOCH":"12522","MEAN_ANOMALY":"281.0955","ARG_OF_PERICENTER":"79.0105","COUNTRY_CODE":"US","INCLINATION":"53.0546","ECCENTRICITY":"0.00006330","SEMIMAJOR_AXIS":"6925.363","TLE_LINE2":"2 47657  53.0546   0.9740 0000633  79.0105 281.0955 15.06395199125228","OBJECT_ID":"2021-012AP","OBJECT_TYPE":"PAYLOAD","OBJECT_NAME":"STARLINK-2041","TIME_SYSTEM":"UTC","PERIAPSIS":"546.790","ELEMENT_SET_NO":"999","APOAPSIS":"547.667","NORAD_CAT_ID":"47657","REF_FRAME":"TEME","EPHEMERIS_TYPE":"0","EPOCH":"2023-05-17T22:01:49.087200","TLE_LINE1":"1 47657U 21012AP  23137.91792925 -.00000285  00000-0 -29461-6 0  9990","BSTAR":"-0.00000029461000","MEAN_ELEMENT_THEORY":"SGP4"},{"OBJECT_NAME":"STARLINK-2042","TIME_SYSTEM":"UTC","PERIAPSIS":"546.351","OBJECT_TYPE":"PAYLOAD","TLE_LINE2":"2 47658  53.0552   1.0081 0001248  92.6750 267.4382 15.06399344125246","SEMIMAJOR_AXIS":"6925.351","OBJECT_ID":"2021-012AQ","INCLINATION":"53.0552","ECCENTRICITY":"0.00012480","ARG_OF_PERICENTER":"92.6750","COUNTRY_CODE":"US","CENTER_NAME":"EARTH","MEAN_ANOMALY":"267.4382","REV_AT_EPOCH":"12524","MEAN_ELEMENT_THEORY":"SGP4","EPOCH":"2023-05-17T21:51:12.309696","EPHEMERIS_TYPE":"0","BSTAR":"0.00024164000000","TLE_LINE1":"1 47658U 21012AQ  23137.91055914  .00003320  00000-0  24164-3 0  9994","NORAD_CAT_ID":"47658","REF_FRAME":"TEME","APOAPSIS":"548.080","ELEMENT_SET_NO":"999","MEAN_MOTION":"15.06399344","MEAN_MOTION_DOT":"0.00003320","RCS_SIZE":"LARGE","DECAY_DATE":null,"RA_OF_ASC_NODE":"1.0081","FILE":"3910633","LAUNCH_DATE":"2021-02-16","SITE":"AFETR","CLASSIFICATION_TYPE":"U","PERIOD":"95.592","MEAN_MOTION_DDOT":"0.0000000000000","GP_ID":"232042228"},{"SEMIMAJOR_AXIS":"6925.303","TLE_LINE2":"2 47659  53.0538 242.3835 0001007  78.6991 281.4111 15.06414907126837","OBJECT_ID":"2021-012AR","OBJECT_TYPE":"PAYLOAD","OBJECT_NAME":"STARLINK-2043","PERIAPSIS":"546.470","TIME_SYSTEM":"UTC","CENTER_NAME":"EARTH","REV_AT_EPOCH":"12683","MEAN_ANOMALY":"281.4111","ARG_OF_PERICENTER":"78.6991","COUNTRY_CODE":"US","INCLINATION":"53.0538","ECCENTRICITY":"0.00010070","NORAD_CAT_ID":"47659","REF_FRAME":"TEME","EPHEMERIS_TYPE":"0","EPOCH":"2023-05-17T14:30:38.969280","BSTAR":"0.00096645000000","TLE_LINE1":"1 47659U 21012AR  23137.60461770  .00014149  00000-0  96645-3 0  9996","MEAN_ELEMENT_THEORY":"SGP4","ELEMENT_SET_NO":"999","APOAPSIS":"547.865","MEAN_MOTION_DOT":"0.00014149","MEAN_MOTION":"15.06414907","FILE":"3910633","RCS_SIZE":"LARGE","DECAY_DATE":null,"RA_OF_ASC_NODE":"242.3835","LAUNCH_DATE":"2021-02-16","MEAN_MOTION_DDOT":"0.0000000000000","GP_ID":"232042480","PERIOD":"95.591","CLASSIFICATION_TYPE":"U","SITE":"AFETR"}];
